{
  "norad_id": 62485,
  "name": "SHIJIAN-25 (SJ-25)",
  "history": [
    {
      "epoch": "2026-03-28T18:33:44.616384Z",
      "apogee_km": 35997.23139460664,
      "perigee_km": 35576.6851672935,
      "latitude_deg": 0.8362129287680953,
      "longitude_deg": 127.42096126466302,
      "height_km": 35576.48817530216,
      "semi_major_axis_km": 42165.095280950074,
      "eccentricity": 0.0049869,
      "inclination_deg": 4.9243,
      "raan_deg": 61.628,
      "arg_perigee_deg": 167.3171,
      "mean_anomaly_deg": 3.0114,
      "mean_motion_rev_day": 1.00270489
    }
  ]
}