SHIJIAN-25 (SJ-25)      
1 62485U 25002A   26087.77343306 -.00000365  00000+0  00000+0 0  9993
2 62485   4.9243  61.6280 0049869 167.3171   3.0114  1.00270489  4558
